NUSAT-4 (ADA)           
1 43195U 18015D   22229.69196851  .00009401  00000+0  30959-3 0  9991
2 43195  97.5425  11.7264 0014345 185.4185 299.8378 15.31613402252603
NUSAT-5 (MARYAM)        
1 43204U 18015K   22229.67214626  .00009648  00000+0  31374-3 0  9996
2 43204  97.5433  12.3254 0013795 186.7644 300.1195 15.32019519252233
GAOFEN 1-02             
1 43259U 18031A   22229.84742412 -.00003245  00000+0 -45929-3 0  9992
2 43259  97.8981 305.1078 0003356 142.6705 217.4748 14.76472946236209
GAOFEN 1-03             
1 43260U 18031B   22229.82553406  .00000424  00000+0  67991-4 0  9993
2 43260  97.8970 305.0499 0004536 233.2579 126.8210 14.76552887236190
GAOFEN 1-04             
1 43262U 18031D   22229.80096810  .00000474  00000+0  75208-4 0  9999
2 43262  97.8980 305.0667 0004509 180.0986 180.0223 14.76542255236184
SENTINEL-3B             
1 43437U 18039A   22228.41519026  .00000067  00000+0  45647-4 0  9998
2 43437  98.6250 294.8768 0001538  86.7823 273.3533 14.26735278224388
GAOFEN 5-01             
1 43461U 18043A   22229.08919890  .00000219  00000+0  57762-4 0  9997
2 43461  98.2716 169.2791 0003157  97.7235 262.4322 14.58012424227493
GAOFEN 6                
1 43484U 18048A   22229.83358274  .00000393  00000+0  63657-4 0  9996
2 43484  97.9277 309.0371 0009336  15.9572 344.1922 14.76504598226890
GAOFEN 11-1             
1 43585U 18063A   22229.77357891  .00003463  00000+0  14697-3 0  9992
2 43585  97.3164 304.3815 0013896 318.9398 190.2159 15.23670865225727
AEOLUS                  
1 43600U 18066A   22229.81678505  .00044464  00000+0  17222-3 0  9999
2 43600  96.6960 234.6605 0010652  83.2045  45.5905 15.87017650230859
ICESAT-2                
1 43613U 18070A   22229.41345582  .00002001  00000+0  72488-4 0  9997
2 43613  92.0021 274.6322 0006373 102.2383 257.9580 15.28279592218688
HYSIS                   
1 43719U 18096A   22229.74443354  .00000606  00000+0  89675-4 0  9999
2 43719  97.9545 295.1191 0002374  32.0900 328.0452 14.78665606200615
KAZSTSAT                
1 43783U 18099AB  22229.18307429  .00000817  00000+0  81696-4 0  9992
2 43783  97.6258 292.7884 0009322  71.0289 289.1941 14.94041707201876
SAUDISAT 5A             
1 43831U 18102A   22229.75805420  .00001780  00000+0  11519-3 0  9994
2 43831  97.4938 301.5419 0013134 334.1861 178.5253 15.09385755203422
SAUDISAT 5B             
1 43833U 18102C   22229.76342466  .00001890  00000+0  12052-3 0  9998
2 43833  97.4960 302.5397 0014318 339.6337 173.0337 15.09832390203478
GAOFEN 10R              
1 44622U 19066A   22229.84357727  .00000646  00000+0  90372-4 0  9990
2 44622  97.8944 168.1826 0002070 133.5792 226.5589 14.80867929155093
CARTOSAT-3              
1 44804U 19081A   22229.82901414  .00002330  00000+0  11342-3 0  9996
2 44804  97.3929 290.1412 0012980   9.3929 102.1126 15.19295417150959
