[{"OBJECT_NAME":"NUSAT-4 (ADA)","OBJECT_ID":"2018-015D","EPOCH":"2022-08-17T16:36:26.079264","MEAN_MOTION":15.31613402,"ECCENTRICITY":0.0014345,"INCLINATION":97.5425,"RA_OF_ASC_NODE":11.7264,"ARG_OF_PERICENTER":185.4185,"MEAN_ANOMALY":299.8378,"EPHEMERIS_TYPE":0,"CLASSIFICATION_TYPE":"U","NORAD_CAT_ID":43195,"ELEMENT_SET_NO":999,"REV_AT_EPOCH":25260,"BSTAR":0.00030959,"MEAN_MOTION_DOT":9.401e-5,"MEAN_MOTION_DDOT":0},{"OBJECT_NAME":"NUSAT-5 (MARYAM)","OBJECT_ID":"2018-015K","EPOCH":"2022-08-17T16:07:53.436864","MEAN_MOTION":15.32019519,"ECCENTRICITY":0.0013795,"INCLINATION":97.5433,"RA_OF_ASC_NODE":12.3254,"ARG_OF_PERICENTER":186.7644,"MEAN_ANOMALY":300.1195,"EPHEMERIS_TYPE":0,"CLASSIFICATION_TYPE":"U","NORAD_CAT_ID":43204,"ELEMENT_SET_NO":999,"REV_AT_EPOCH":25223,"BSTAR":0.00031374,"MEAN_MOTION_DOT":9.648e-5,"MEAN_MOTION_DDOT":0},{"OBJECT_NAME":"GAOFEN 1-02","OBJECT_ID":"2018-031A","EPOCH":"2022-08-17T20:20:17.443968","MEAN_MOTION":14.76472946,"ECCENTRICITY":0.0003356,"INCLINATION":97.8981,"RA_OF_ASC_NODE":305.1078,"ARG_OF_PERICENTER":142.6705,"MEAN_ANOMALY":217.4748,"EPHEMERIS_TYPE":0,"CLASSIFICATION_TYPE":"U","NORAD_CAT_ID":43259,"ELEMENT_SET_NO":999,"REV_AT_EPOCH":23620,"BSTAR":-0.00045929,"MEAN_MOTION_DOT":-3.245e-5,"MEAN_MOTION_DDOT":0},{"OBJECT_NAME":"GAOFEN 1-03","OBJECT_ID":"2018-031B","EPOCH":"2022-08-17T19:48:46.142784","MEAN_MOTION":14.76552887,"ECCENTRICITY":0.0004536,"INCLINATION":97.897,"RA_OF_ASC_NODE":305.0499,"ARG_OF_PERICENTER":233.2579,"MEAN_ANOMALY":126.821,"EPHEMERIS_TYPE":0,"CLASSIFICATION_TYPE":"U","NORAD_CAT_ID":43260,"ELEMENT_SET_NO":999,"REV_AT_EPOCH":23619,"BSTAR":6.7991e-5,"MEAN_MOTION_DOT":4.24e-6,"MEAN_MOTION_DDOT":0},{"OBJECT_NAME":"GAOFEN 1-04","OBJECT_ID":"2018-031D","EPOCH":"2022-08-17T19:13:23.643840","MEAN_MOTION":14.76542255,"ECCENTRICITY":0.0004509,"INCLINATION":97.898,"RA_OF_ASC_NODE":305.0667,"ARG_OF_PERICENTER":180.0986,"MEAN_ANOMALY":180.0223,"EPHEMERIS_TYPE":0,"CLASSIFICATION_TYPE":"U","NORAD_CAT_ID":43262,"ELEMENT_SET_NO":999,"REV_AT_EPOCH":23618,"BSTAR":7.5208e-5,"MEAN_MOTION_DOT":4.74e-6,"MEAN_MOTION_DDOT":0},{"OBJECT_NAME":"SENTINEL-3B","OBJECT_ID":"2018-039A","EPOCH":"2022-08-16T09:57:52.438464","MEAN_MOTION":14.26735278,"ECCENTRICITY":0.0001538,"INCLINATION":98.625,"RA_OF_ASC_NODE":294.8768,"ARG_OF_PERICENTER":86.7823,"MEAN_ANOMALY":273.3533,"EPHEMERIS_TYPE":0,"CLASSIFICATION_TYPE":"U","NORAD_CAT_ID":43437,"ELEMENT_SET_NO":999,"REV_AT_EPOCH":22438,"BSTAR":4.5647e-5,"MEAN_MOTION_DOT":6.7e-7,"MEAN_MOTION_DDOT":0},{"OBJECT_NAME":"GAOFEN 5-01","OBJECT_ID":"2018-043A","EPOCH":"2022-08-17T02:08:26.784960","MEAN_MOTION":14.58012424,"ECCENTRICITY":0.0003157,"INCLINATION":98.2716,"RA_OF_ASC_NODE":169.2791,"ARG_OF_PERICENTER":97.7235,"MEAN_ANOMALY":262.4322,"EPHEMERIS_TYPE":0,"CLASSIFICATION_TYPE":"U","NORAD_CAT_ID":43461,"ELEMENT_SET_NO":999,"REV_AT_EPOCH":22749,"BSTAR":5.7762e-5,"MEAN_MOTION_DOT":2.19e-6,"MEAN_MOTION_DDOT":0},{"OBJECT_NAME":"GAOFEN 6","OBJECT_ID":"2018-048A","EPOCH":"2022-08-17T20:00:21.548736","MEAN_MOTION":14.76504598,"ECCENTRICITY":0.0009336,"INCLINATION":97.9277,"RA_OF_ASC_NODE":309.0371,"ARG_OF_PERICENTER":15.9572,"MEAN_ANOMALY":344.1922,"EPHEMERIS_TYPE":0,"CLASSIFICATION_TYPE":"U","NORAD_CAT_ID":43484,"ELEMENT_SET_NO":999,"REV_AT_EPOCH":22689,"BSTAR":6.3657e-5,"MEAN_MOTION_DOT":3.93e-6,"MEAN_MOTION_DDOT":0},{"OBJECT_NAME":"GAOFEN 11-1","OBJECT_ID":"2018-063A","EPOCH":"2022-08-17T18:33:57.217824","MEAN_MOTION":15.23670865,"ECCENTRICITY":0.0013896,"INCLINATION":97.3164,"RA_OF_ASC_NODE":304.3815,"ARG_OF_PERICENTER":318.9398,"MEAN_ANOMALY":190.2159,"EPHEMERIS_TYPE":0,"CLASSIFICATION_TYPE":"U","NORAD_CAT_ID":43585,"ELEMENT_SET_NO":999,"REV_AT_EPOCH":22572,"BSTAR":0.00014697,"MEAN_MOTION_DOT":3.463e-5,"MEAN_MOTION_DDOT":0},{"OBJECT_NAME":"AEOLUS","OBJECT_ID":"2018-066A","EPOCH":"2022-08-17T19:36:10.228320","MEAN_MOTION":15.8701765,"ECCENTRICITY":0.0010652,"INCLINATION":96.696,"RA_OF_ASC_NODE":234.6605,"ARG_OF_PERICENTER":83.2045,"MEAN_ANOMALY":45.5905,"EPHEMERIS_TYPE":0,"CLASSIFICATION_TYPE":"U","NORAD_CAT_ID":43600,"ELEMENT_SET_NO":999,"REV_AT_EPOCH":23085,"BSTAR":0.00017222,"MEAN_MOTION_DOT":0.00044464,"MEAN_MOTION_DDOT":0},{"OBJECT_NAME":"ICESAT-2","OBJECT_ID":"2018-070A","EPOCH":"2022-08-17T09:55:22.582848","MEAN_MOTION":15.28279592,"ECCENTRICITY":0.0006373,"INCLINATION":92.0021,"RA_OF_ASC_NODE":274.6322,"ARG_OF_PERICENTER":102.2383,"MEAN_ANOMALY":257.958,"EPHEMERIS_TYPE":0,"CLASSIFICATION_TYPE":"U","NORAD_CAT_ID":43613,"ELEMENT_SET_NO":999,"REV_AT_EPOCH":21868,"BSTAR":7.2488e-5,"MEAN_MOTION_DOT":2.001e-5,"MEAN_MOTION_DDOT":0},{"OBJECT_NAME":"HYSIS","OBJECT_ID":"2018-096A","EPOCH":"2022-08-17T17:51:59.057856","MEAN_MOTION":14.78665606,"ECCENTRICITY":0.0002374,"INCLINATION":97.9545,"RA_OF_ASC_NODE":295.1191,"ARG_OF_PERICENTER":32.09,"MEAN_ANOMALY":328.0452,"EPHEMERIS_TYPE":0,"CLASSIFICATION_TYPE":"U","NORAD_CAT_ID":43719,"ELEMENT_SET_NO":999,"REV_AT_EPOCH":20061,"BSTAR":8.9675e-5,"MEAN_MOTION_DOT":6.06e-6,"MEAN_MOTION_DDOT":0},{"OBJECT_NAME":"KAZSTSAT","OBJECT_ID":"2018-099AB","EPOCH":"2022-08-17T04:23:37.618656","MEAN_MOTION":14.94041707,"ECCENTRICITY":0.0009322,"INCLINATION":97.6258,"RA_OF_ASC_NODE":292.7884,"ARG_OF_PERICENTER":71.0289,"MEAN_ANOMALY":289.1941,"EPHEMERIS_TYPE":0,"CLASSIFICATION_TYPE":"U","NORAD_CAT_ID":43783,"ELEMENT_SET_NO":999,"REV_AT_EPOCH":20187,"BSTAR":8.1696e-5,"MEAN_MOTION_DOT":8.17e-6,"MEAN_MOTION_DDOT":0},{"OBJECT_NAME":"SAUDISAT 5A","OBJECT_ID":"2018-102A","EPOCH":"2022-08-17T18:11:35.882880","MEAN_MOTION":15.09385755,"ECCENTRICITY":0.0013134,"INCLINATION":97.4938,"RA_OF_ASC_NODE":301.5419,"ARG_OF_PERICENTER":334.1861,"MEAN_ANOMALY":178.5253,"EPHEMERIS_TYPE":0,"CLASSIFICATION_TYPE":"U","NORAD_CAT_ID":43831,"ELEMENT_SET_NO":999,"REV_AT_EPOCH":20342,"BSTAR":0.00011519,"MEAN_MOTION_DOT":1.78e-5,"MEAN_MOTION_DDOT":0},{"OBJECT_NAME":"SAUDISAT 5B","OBJECT_ID":"2018-102C","EPOCH":"2022-08-17T18:19:19.890624","MEAN_MOTION":15.0983239,"ECCENTRICITY":0.0014318,"INCLINATION":97.496,"RA_OF_ASC_NODE":302.5397,"ARG_OF_PERICENTER":339.6337,"MEAN_ANOMALY":173.0337,"EPHEMERIS_TYPE":0,"CLASSIFICATION_TYPE":"U","NORAD_CAT_ID":43833,"ELEMENT_SET_NO":999,"REV_AT_EPOCH":20347,"BSTAR":0.00012052,"MEAN_MOTION_DOT":1.89e-5,"MEAN_MOTION_DDOT":0},{"OBJECT_NAME":"GAOFEN 10R","OBJECT_ID":"2019-066A","EPOCH":"2022-08-17T20:14:45.076128","MEAN_MOTION":14.80867929,"ECCENTRICITY":0.000207,"INCLINATION":97.8944,"RA_OF_ASC_NODE":168.1826,"ARG_OF_PERICENTER":133.5792,"MEAN_ANOMALY":226.5589,"EPHEMERIS_TYPE":0,"CLASSIFICATION_TYPE":"U","NORAD_CAT_ID":44622,"ELEMENT_SET_NO":999,"REV_AT_EPOCH":15509,"BSTAR":9.0372e-5,"MEAN_MOTION_DOT":6.46e-6,"MEAN_MOTION_DDOT":0},{"OBJECT_NAME":"CARTOSAT-3","OBJECT_ID":"2019-081A","EPOCH":"2022-08-17T19:53:46.821696","MEAN_MOTION":15.19295417,"ECCENTRICITY":0.001298,"INCLINATION":97.3929,"RA_OF_ASC_NODE":290.1412,"ARG_OF_PERICENTER":9.3929,"MEAN_ANOMALY":102.1126,"EPHEMERIS_TYPE":0,"CLASSIFICATION_TYPE":"U","NORAD_CAT_ID":44804,"ELEMENT_SET_NO":999,"REV_AT_EPOCH":15095,"BSTAR":0.00011342,"MEAN_MOTION_DOT":2.33e-5,"MEAN_MOTION_DDOT":0}]